OBJECT_NAME,OBJECT_ID,EPOCH,MEAN_MOTION,ECCENTRICITY,INCLINATION,RA_OF_ASC_NODE,ARG_OF_PERICENTER,MEAN_ANOMALY,EPHEMERIS_TYPE,CLASSIFICATION_TYPE,NORAD_CAT_ID,ELEMENT_SET_NO,REV_AT_EPOCH,BSTAR,MEAN_MOTION_DOT,MEAN_MOTION_DDOT
ONEWEB-0368,2021-090R,2026-06-16T20:01:00.542784,13.20770287,.0001415,87.9183,274.5212,84.1734,275.9560,0,U,49294,999,23093,-.87222E-4,-.22E-6,0
ONEWEB-0369,2021-090S,2026-06-17T02:32:51.850752,13.19724354,.0001804,87.9169,304.9901,98.3850,261.7487,0,U,49295,999,22640,-.32728E-4,0,0
ONEWEB-0370,2021-090T,2026-06-17T00:30:06.193728,13.20770514,.0002199,87.9195,274.4732,105.5043,254.6333,0,U,49296,999,22984,.28398E-3,.128E-5,0
ONEWEB-0371,2021-090U,2026-06-16T21:16:41.909088,13.19724202,.0001879,87.9174,305.0261,102.5795,257.5548,0,U,49297,999,22641,.28266E-4,.24E-6,0
ONEWEB-0372,2021-090V,2026-06-16T20:37:10.514208,13.20771441,.0001951,87.9195,274.5071,101.5834,258.5518,0,U,49298,999,22979,.23685E-3,.109E-5,0
ONEWEB-0373,2021-090W,2026-06-16T17:35:34.103904,13.20771468,.000206,87.9192,274.5325,100.2254,259.9112,0,U,49299,999,23096,-.36961E-5,.11E-6,0
ONEWEB-0374,2021-090X,2026-06-17T01:01:21.874656,13.14503101,.0002161,87.8969,289.7260,84.6465,275.4911,0,U,49300,999,22754,-.29019E-3,-.95E-6,0
ONEWEB-0375,2021-090Y,2026-06-17T00:34:58.053792,13.20770301,.0002312,87.9194,274.4661,87.3994,272.7404,0,U,49301,999,23050,-.25894E-3,-.92E-6,0
ONEWEB-0376,2021-090Z,2026-06-17T02:41:57.181632,13.19724325,.0001717,87.9175,304.9811,101.9876,258.1449,0,U,49302,999,22644,-.10311E-3,-.28E-6,0
ONEWEB-0377,2021-090AA,2026-06-17T03:53:56.467104,13.20776113,.0002426,87.9199,274.4420,96.6951,263.4459,0,U,49303,999,23051,-.45361E-2,-.1831E-4,0
ONEWEB-0378,2021-090AB,2026-06-16T17:28:29.345088,13.20770142,.000197,87.9191,274.5321,96.2475,263.8883,0,U,49304,999,22972,.97581E-4,.53E-6,0
ONEWEB-0379,2021-090AC,2026-06-17T00:54:30.569184,13.14502545,.0001915,87.8966,289.7376,96.3234,263.8113,0,U,49305,999,22754,-.29383E-4,.2E-7,0
ONEWEB-0380,2021-090AD,2026-06-17T02:37:24.992256,13.19724878,.0002057,87.9172,304.9869,97.1908,262.9459,0,U,49306,999,22641,.20975E-3,.97E-6,0
ONEWEB-0381,2021-090AE,2026-06-17T00:10:43.190112,13.20772326,.0002081,87.9196,274.4761,93.0532,267.0840,0,U,49307,999,22980,.68096E-4,.41E-6,0
ONEWEB-0382,2021-090AF,2026-06-16T23:51:18.565632,13.20770643,.0001976,87.9193,274.4729,91.8645,268.2715,0,U,49308,999,22979,.1674E-3,.81E-6,0
ONEWEB-0383,2021-090AG,2026-06-16T21:06:08.527968,13.14500806,.000183,87.8970,289.7606,95.4457,264.6882,0,U,49309,999,22755,.17549E-3,.78E-6,0
ONEWEB-0384,2021-090AH,2026-06-17T01:24:03.216384,13.20812322,.0001947,87.9198,274.5039,87.0841,273.0515,0,U,49310,999,22981,-.28152E-6,.13E-6,0
ONEWEB-0385,2021-090AJ,2026-06-16T23:41:37.528224,13.20773160,.0002,87.9193,274.4797,94.5361,265.6001,0,U,49311,999,22977,-.63018E-4,-.13E-6,0
ONEWEB-0386,2021-090AK,2026-06-17T00:05:52.376352,13.20771844,.0001935,87.9199,274.4673,92.9772,267.1583,0,U,49312,999,22979,.89658E-4,.49E-6,0
ONEWEB-0387,2021-090AL,2026-06-16T23:44:03.083712,13.20772438,.0002316,87.9184,274.4925,95.7524,264.3873,0,U,49313,999,22979,.31692E-4,.26E-6,0
ONEWEB-0388,2021-090AM,2026-06-17T02:30:35.593632,13.19724859,.0001895,87.9169,304.9858,94.5488,265.5861,0,U,49314,999,22640,.13919E-4,.19E-6,0
ONEWEB-0389,2021-132A,2026-06-17T01:07:27.427008,13.17648891,.0002159,87.9130,5.8960,82.3151,277.8225,0,U,50469,999,21806,-.16838E-4,.6E-7,0
ONEWEB-0390,2021-132B,2026-06-17T01:09:53.206272,13.17648921,.0001991,87.9131,5.8966,94.0764,266.0596,0,U,50470,999,21806,.13625E-3,.66E-6,0
ONEWEB-0391,2021-132C,2026-06-17T01:12:19.105632,13.17648473,.0002689,87.9131,5.9059,85.0642,275.0796,0,U,50471,999,21806,.88803E-4,.47E-6,0
ONEWEB-0392,2021-132D,2026-06-17T01:56:04.056864,13.17649049,.0002203,87.9142,5.8682,83.0848,277.0534,0,U,50472,999,21810,.12558E-3,.62E-6,0
ONEWEB-0393,2021-132E,2026-06-17T01:20:49.210368,13.17649857,.0002009,87.9132,5.8903,85.1453,274.9908,0,U,50473,999,21809,.64014E-4,.38E-6,0
ONEWEB-0394,2021-132F,2026-06-17T04:10:33.473856,13.18688293,.0001839,87.9170,335.4443,87.7710,272.3633,0,U,50474,999,22159,.39458E-4,.28E-6,0
ONEWEB-0395,2021-132G,2026-06-17T02:10:39.859968,13.11418837,.0002045,87.8889,21.0865,88.9723,271.1639,0,U,50475,999,21570,-.10432E-2,-.357E-5,0
ONEWEB-0396,2021-132H,2026-06-17T04:00:49.422816,13.18685639,.0001922,87.9171,335.4584,87.8831,272.2521,0,U,50476,999,22163,-.63118E-4,-.12E-6,0
ONEWEB-0397,2021-132J,2026-06-17T04:22:40.853856,13.18685044,.0001854,87.9170,335.4555,84.7785,275.3558,0,U,50477,999,22161,-.83559E-4,-.2E-6,0
ONEWEB-0398,2021-132K,2026-06-17T01:24:17.008416,13.11414074,.0001959,87.8892,21.0835,94.4131,265.7221,0,U,50478,999,21559,.49096E-3,.187E-5,0
