ONEWEB-0368             
1 49294U 21090R   26167.83403406 -.00000022  00000+0 -87222-4 0  9990
2 49294  87.9183 274.5212 0001415  84.1734 275.9560 13.20770287230935
ONEWEB-0369             
1 49295U 21090S   26168.10615568  .00000000  00000+0 -32728-4 0  9992
2 49295  87.9169 304.9901 0001804  98.3850 261.7487 13.19724354226401
ONEWEB-0370             
1 49296U 21090T   26168.02090502  .00000128  00000+0  28398-3 0  9996
2 49296  87.9195 274.4732 0002199 105.5043 254.6333 13.20770514229840
ONEWEB-0371             
1 49297U 21090U   26167.88659617  .00000024  00000+0  28266-4 0  9998
2 49297  87.9174 305.0261 0001879 102.5795 257.5548 13.19724202226412
ONEWEB-0372             
1 49298U 21090V   26167.85914947  .00000109  00000+0  23685-3 0  9999
2 49298  87.9195 274.5071 0001951 101.5834 258.5518 13.20771441229790
ONEWEB-0373             
1 49299U 21090W   26167.73303361  .00000011  00000+0 -36961-5 0  9995
2 49299  87.9192 274.5325 0002060 100.2254 259.9112 13.20771468230969
ONEWEB-0374             
1 49300U 21090X   26168.04261429 -.00000095  00000+0 -29019-3 0  9998
2 49300  87.8969 289.7260 0002161  84.6465 275.4911 13.14503101227540
ONEWEB-0375             
1 49301U 21090Y   26168.02428303 -.00000092  00000+0 -25894-3 0  9997
2 49301  87.9194 274.4661 0002312  87.3994 272.7404 13.20770301230505
ONEWEB-0376             
1 49302U 21090Z   26168.11246738 -.00000028  00000+0 -10311-3 0  9995
2 49302  87.9175 304.9811 0001717 101.9876 258.1449 13.19724325226449
ONEWEB-0377             
1 49303U 21090AA  26168.16245911 -.00001831  00000+0 -45361-2 0  9998
2 49303  87.9199 274.4420 0002426  96.6951 263.4459 13.20776113230512
ONEWEB-0378             
1 49304U 21090AB  26167.72811742  .00000053  00000+0  97581-4 0  9997
2 49304  87.9191 274.5321 0001970  96.2475 263.8883 13.20770142229728
ONEWEB-0379             
1 49305U 21090AC  26168.03785381  .00000002  00000+0 -29383-4 0  9992
2 49305  87.8966 289.7376 0001915  96.3234 263.8113 13.14502545227546
ONEWEB-0380             
1 49306U 21090AD  26168.10931704  .00000097  00000+0  20975-3 0  9993
2 49306  87.9172 304.9869 0002057  97.1908 262.9459 13.19724878226417
ONEWEB-0381             
1 49307U 21090AE  26168.00744433  .00000041  00000+0  68096-4 0  9990
2 49307  87.9196 274.4761 0002081  93.0532 267.0840 13.20772326229800
ONEWEB-0382             
1 49308U 21090AF  26167.99396488  .00000081  00000+0  16740-3 0  9993
2 49308  87.9193 274.4729 0001976  91.8645 268.2715 13.20770643229797
ONEWEB-0383             
1 49309U 21090AG  26167.87926537  .00000078  00000+0  17549-3 0  9999
2 49309  87.8970 289.7606 0001830  95.4457 264.6882 13.14500806227555
ONEWEB-0384             
1 49310U 21090AH  26168.05837056  .00000013  00000+0 -28152-6 0  9994
2 49310  87.9198 274.5039 0001947  87.0841 273.0515 13.20812322229819
ONEWEB-0385             
1 49311U 21090AJ  26167.98723991 -.00000013  00000+0 -63018-4 0  9997
2 49311  87.9193 274.4797 0002000  94.5361 265.6001 13.20773160229774
ONEWEB-0386             
1 49312U 21090AK  26168.00407843  .00000049  00000+0  89658-4 0  9992
2 49312  87.9199 274.4673 0001935  92.9772 267.1583 13.20771844229799
ONEWEB-0387             
1 49313U 21090AL  26167.98892458  .00000026  00000+0  31692-4 0  9999
2 49313  87.9184 274.4925 0002316  95.7524 264.3873 13.20772438229795
ONEWEB-0388             
1 49314U 21090AM  26168.10457863  .00000019  00000+0  13919-4 0  9996
2 49314  87.9169 304.9858 0001895  94.5488 265.5861 13.19724859226407
ONEWEB-0389             
1 50469U 21132A   26168.04684522  .00000006  00000+0 -16838-4 0  9993
2 50469  87.9130   5.8960 0002159  82.3151 277.8225 13.17648891218067
ONEWEB-0390             
1 50470U 21132B   26168.04853248  .00000066  00000+0  13625-3 0  9993
2 50470  87.9131   5.8966 0001991  94.0764 266.0596 13.17648921218064
ONEWEB-0391             
1 50471U 21132C   26168.05022113  .00000047  00000+0  88803-4 0  9994
2 50471  87.9131   5.9059 0002689  85.0642 275.0796 13.17648473218063
ONEWEB-0392             
1 50472U 21132D   26168.08060251  .00000062  00000+0  12558-3 0  9993
2 50472  87.9142   5.8682 0002203  83.0848 277.0534 13.17649049218102
ONEWEB-0393             
1 50473U 21132E   26168.05612512  .00000038  00000+0  64014-4 0  9992
2 50473  87.9132   5.8903 0002009  85.1453 274.9908 13.17649857218093
ONEWEB-0394             
1 50474U 21132F   26168.17399854  .00000028  00000+0  39458-4 0  9990
2 50474  87.9170 335.4443 0001839  87.7710 272.3633 13.18688293221595
ONEWEB-0395             
1 50475U 21132G   26168.09073912 -.00000357  00000+0 -10432-2 0  9992
2 50475  87.8889  21.0865 0002045  88.9723 271.1639 13.11418837215702
ONEWEB-0396             
1 50476U 21132H   26168.16723869 -.00000012  00000+0 -63118-4 0  9993
2 50476  87.9171 335.4584 0001922  87.8831 272.2521 13.18685639221633
ONEWEB-0397             
1 50477U 21132J   26168.18241729 -.00000020  00000+0 -83559-4 0  9996
2 50477  87.9170 335.4555 0001854  84.7785 275.3558 13.18685044221611
ONEWEB-0398             
1 50478U 21132K   26168.05853019  .00000187  00000+0  49096-3 0  9993
2 50478  87.8892  21.0835 0001959  94.4131 265.7221 13.11414074215596
